[{"OBJECT_NAME":"ONEWEB-0151","OBJECT_ID":"2021-025AA","EPOCH":"2025-10-07T07:33:52.633728","MEAN_MOTION":13.1346907,"ECCENTRICITY":0.00018373,"INCLINATION":87.9053,"RA_OF_ASC_NODE":10.463,"ARG_OF_PERICENTER":105.7062,"MEAN_ANOMALY":254.427,"EPHEMERIS_TYPE":0,"CLASSIFICATION_TYPE":"U","NORAD_CAT_ID":48066,"ELEMENT_SET_NO":999,"REV_AT_EPOCH":22039,"BSTAR":0.00099396338,"MEAN_MOTION_DOT":3.76e-6,"MEAN_MOTION_DDOT":0},{"OBJECT_NAME":"ONEWEB-0170","OBJECT_ID":"2021-025AB","EPOCH":"2025-10-07T05:56:22.478496","MEAN_MOTION":13.13471216,"ECCENTRICITY":0.00015005,"INCLINATION":87.9056,"RA_OF_ASC_NODE":10.4833,"ARG_OF_PERICENTER":114.015,"MEAN_ANOMALY":246.1137,"EPHEMERIS_TYPE":0,"CLASSIFICATION_TYPE":"U","NORAD_CAT_ID":48067,"ELEMENT_SET_NO":999,"REV_AT_EPOCH":22034,"BSTAR":0.0011311481,"MEAN_MOTION_DOT":4.26e-6,"MEAN_MOTION_DDOT":0},{"OBJECT_NAME":"ONEWEB-0168","OBJECT_ID":"2021-025AC","EPOCH":"2025-10-07T05:34:26.057856","MEAN_MOTION":13.13471302,"ECCENTRICITY":0.00019815,"INCLINATION":87.9058,"RA_OF_ASC_NODE":10.4679,"ARG_OF_PERICENTER":100.9936,"MEAN_ANOMALY":259.1416,"EPHEMERIS_TYPE":0,"CLASSIFICATION_TYPE":"U","NORAD_CAT_ID":48068,"ELEMENT_SET_NO":999,"REV_AT_EPOCH":22035,"BSTAR":0.00053518135,"MEAN_MOTION_DOT":2.08e-6,"MEAN_MOTION_DDOT":0},{"OBJECT_NAME":"ONEWEB-0173","OBJECT_ID":"2021-025AD","EPOCH":"2025-10-07T07:11:56.232096","MEAN_MOTION":13.13469969,"ECCENTRICITY":0.00022369,"INCLINATION":87.9056,"RA_OF_ASC_NODE":10.4625,"ARG_OF_PERICENTER":107.7986,"MEAN_ANOMALY":252.3388,"EPHEMERIS_TYPE":0,"CLASSIFICATION_TYPE":"U","NORAD_CAT_ID":48069,"ELEMENT_SET_NO":999,"REV_AT_EPOCH":22060,"BSTAR":-0.00016081701,"MEAN_MOTION_DOT":-4.6e-7,"MEAN_MOTION_DDOT":0},{"OBJECT_NAME":"ONEWEB-0171","OBJECT_ID":"2021-025AE","EPOCH":"2025-10-07T06:15:52.074432","MEAN_MOTION":13.13468038,"ECCENTRICITY":0.00018101,"INCLINATION":87.9046,"RA_OF_ASC_NODE":10.5038,"ARG_OF_PERICENTER":104.9143,"MEAN_ANOMALY":255.2187,"EPHEMERIS_TYPE":0,"CLASSIFICATION_TYPE":"U","NORAD_CAT_ID":48070,"ELEMENT_SET_NO":999,"REV_AT_EPOCH":22041,"BSTAR":0.00029630143,"MEAN_MOTION_DOT":1.21e-6,"MEAN_MOTION_DDOT":0},{"OBJECT_NAME":"ONEWEB-0172","OBJECT_ID":"2021-025AF","EPOCH":"2025-10-07T07:36:19.370304","MEAN_MOTION":13.13470542,"ECCENTRICITY":0.0001894,"INCLINATION":87.9057,"RA_OF_ASC_NODE":10.4637,"ARG_OF_PERICENTER":105.6874,"MEAN_ANOMALY":254.4464,"EPHEMERIS_TYPE":0,"CLASSIFICATION_TYPE":"U","NORAD_CAT_ID":48071,"ELEMENT_SET_NO":999,"REV_AT_EPOCH":22131,"BSTAR":0.00093347721,"MEAN_MOTION_DOT":3.54e-6,"MEAN_MOTION_DDOT":0},{"OBJECT_NAME":"ONEWEB-0174","OBJECT_ID":"2021-025AG","EPOCH":"2025-10-07T07:09:29.753856","MEAN_MOTION":13.13470691,"ECCENTRICITY":0.00019602,"INCLINATION":87.9045,"RA_OF_ASC_NODE":10.4779,"ARG_OF_PERICENTER":97.7413,"MEAN_ANOMALY":262.3939,"EPHEMERIS_TYPE":0,"CLASSIFICATION_TYPE":"U","NORAD_CAT_ID":48072,"ELEMENT_SET_NO":999,"REV_AT_EPOCH":22063,"BSTAR":-4.0764749e-5,"MEAN_MOTION_DOT":-2.0e-8,"MEAN_MOTION_DDOT":0},{"OBJECT_NAME":"ONEWEB-0175","OBJECT_ID":"2021-025AH","EPOCH":"2025-10-07T06:03:40.671648","MEAN_MOTION":13.13468735,"ECCENTRICITY":0.0001759,"INCLINATION":87.9055,"RA_OF_ASC_NODE":10.4522,"ARG_OF_PERICENTER":112.1559,"MEAN_ANOMALY":247.9757,"EPHEMERIS_TYPE":0,"CLASSIFICATION_TYPE":"U","NORAD_CAT_ID":48073,"ELEMENT_SET_NO":999,"REV_AT_EPOCH":22028,"BSTAR":0.00075266462,"MEAN_MOTION_DOT":2.88e-6,"MEAN_MOTION_DDOT":0},{"OBJECT_NAME":"ONEWEB-0177","OBJECT_ID":"2021-025AJ","EPOCH":"2025-10-07T06:20:44.857248","MEAN_MOTION":13.13469016,"ECCENTRICITY":0.0001988,"INCLINATION":87.906,"RA_OF_ASC_NODE":10.4678,"ARG_OF_PERICENTER":100.2973,"MEAN_ANOMALY":259.8381,"EPHEMERIS_TYPE":0,"CLASSIFICATION_TYPE":"U","NORAD_CAT_ID":48074,"ELEMENT_SET_NO":999,"REV_AT_EPOCH":22047,"BSTAR":8.7622624e-5,"MEAN_MOTION_DOT":4.5e-7,"MEAN_MOTION_DDOT":0},{"OBJECT_NAME":"ONEWEB-0178","OBJECT_ID":"2021-025AK","EPOCH":"2025-10-07T06:47:44.950560","MEAN_MOTION":13.13470077,"ECCENTRICITY":0.00019796,"INCLINATION":87.9055,"RA_OF_ASC_NODE":10.5098,"ARG_OF_PERICENTER":108.4436,"MEAN_ANOMALY":251.6908,"EPHEMERIS_TYPE":0,"CLASSIFICATION_TYPE":"U","NORAD_CAT_ID":48075,"ELEMENT_SET_NO":999,"REV_AT_EPOCH":22052,"BSTAR":-0.00058888532,"MEAN_MOTION_DOT":-2.02e-6,"MEAN_MOTION_DDOT":0},{"OBJECT_NAME":"ONEWEB-0108","OBJECT_ID":"2021-025AL","EPOCH":"2025-10-07T05:49:03.400608","MEAN_MOTION":13.13469376,"ECCENTRICITY":0.00017129,"INCLINATION":87.9055,"RA_OF_ASC_NODE":10.4634,"ARG_OF_PERICENTER":93.7397,"MEAN_ANOMALY":266.3928,"EPHEMERIS_TYPE":0,"CLASSIFICATION_TYPE":"U","NORAD_CAT_ID":48076,"ELEMENT_SET_NO":999,"REV_AT_EPOCH":22044,"BSTAR":0.00076241423,"MEAN_MOTION_DOT":2.91e-6,"MEAN_MOTION_DDOT":0},{"OBJECT_NAME":"ONEWEB-0169","OBJECT_ID":"2021-025AM","EPOCH":"2025-10-07T06:35:21.687648","MEAN_MOTION":13.13470241,"ECCENTRICITY":0.0001702,"INCLINATION":87.9053,"RA_OF_ASC_NODE":10.48,"ARG_OF_PERICENTER":94.504,"MEAN_ANOMALY":265.6284,"EPHEMERIS_TYPE":0,"CLASSIFICATION_TYPE":"U","NORAD_CAT_ID":48077,"ELEMENT_SET_NO":999,"REV_AT_EPOCH":21910,"BSTAR":-0.0003701449,"MEAN_MOTION_DOT":-1.22e-6,"MEAN_MOTION_DDOT":0},{"OBJECT_NAME":"ONEWEB-0176","OBJECT_ID":"2021-031A","EPOCH":"2025-10-07T05:45:01.025280","MEAN_MOTION":13.14503127,"ECCENTRICITY":0.00019144,"INCLINATION":87.9057,"RA_OF_ASC_NODE":340.0814,"ARG_OF_PERICENTER":103.1769,"MEAN_ANOMALY":256.9574,"EPHEMERIS_TYPE":0,"CLASSIFICATION_TYPE":"U","NORAD_CAT_ID":48210,"ELEMENT_SET_NO":999,"REV_AT_EPOCH":21508,"BSTAR":0.00064265155,"MEAN_MOTION_DOT":2.51e-6,"MEAN_MOTION_DDOT":0},{"OBJECT_NAME":"ONEWEB-0184","OBJECT_ID":"2021-031B","EPOCH":"2025-10-07T05:06:11.417760","MEAN_MOTION":13.14503872,"ECCENTRICITY":0.00020612,"INCLINATION":87.9065,"RA_OF_ASC_NODE":340.0605,"ARG_OF_PERICENTER":124.411,"MEAN_ANOMALY":235.7215,"EPHEMERIS_TYPE":0,"CLASSIFICATION_TYPE":"U","NORAD_CAT_ID":48211,"ELEMENT_SET_NO":999,"REV_AT_EPOCH":21505,"BSTAR":-0.00011769256,"MEAN_MOTION_DOT":-3.1e-7,"MEAN_MOTION_DDOT":0},{"OBJECT_NAME":"ONEWEB-0179","OBJECT_ID":"2021-031C","EPOCH":"2025-10-07T04:23:55.779936","MEAN_MOTION":13.14501214,"ECCENTRICITY":0.00019356,"INCLINATION":87.906,"RA_OF_ASC_NODE":340.0802,"ARG_OF_PERICENTER":97.3143,"MEAN_ANOMALY":262.8207,"EPHEMERIS_TYPE":0,"CLASSIFICATION_TYPE":"U","NORAD_CAT_ID":48212,"ELEMENT_SET_NO":999,"REV_AT_EPOCH":21509,"BSTAR":4.4037303e-5,"MEAN_MOTION_DOT":2.9e-7,"MEAN_MOTION_DDOT":0},{"OBJECT_NAME":"ONEWEB-0180","OBJECT_ID":"2021-031D","EPOCH":"2025-10-07T05:10:45.205536","MEAN_MOTION":13.14502421,"ECCENTRICITY":0.00021764,"INCLINATION":87.9066,"RA_OF_ASC_NODE":340.0658,"ARG_OF_PERICENTER":102.3565,"MEAN_ANOMALY":257.7808,"EPHEMERIS_TYPE":0,"CLASSIFICATION_TYPE":"U","NORAD_CAT_ID":48213,"ELEMENT_SET_NO":999,"REV_AT_EPOCH":21498,"BSTAR":0.00016184878,"MEAN_MOTION_DOT":7.3e-7,"MEAN_MOTION_DDOT":0}]
