ONEWEB-0151             
1 48066U 21025AA  25280.31519252  .00000376  00000+0  99396-3 0  9993
2 48066  87.9053  10.4630 0001837 105.7062 254.4270 13.13469070220396
ONEWEB-0170             
1 48067U 21025AB  25280.24748239  .00000426  00000+0  11311-2 0  9991
2 48067  87.9056  10.4833 0001500 114.0150 246.1137 13.13471216220343
ONEWEB-0168             
1 48068U 21025AC  25280.23224604  .00000208  00000+0  53518-3 0  9990
2 48068  87.9058  10.4679 0001981 100.9936 259.1416 13.13471302220354
ONEWEB-0173             
1 48069U 21025AD  25280.29995639 -.00000046  00000+0 -16082-3 0  9997
2 48069  87.9056  10.4625 0002236 107.7986 252.3388 13.13469969220605
ONEWEB-0171             
1 48070U 21025AE  25280.26101938  .00000121  00000+0  29630-3 0  9992
2 48070  87.9046  10.5038 0001810 104.9143 255.2187 13.13468038220410
ONEWEB-0172             
1 48071U 21025AF  25280.31689086  .00000354  00000+0  93348-3 0  9999
2 48071  87.9057  10.4637 0001894 105.6874 254.4464 13.13470542221310
ONEWEB-0174             
1 48072U 21025AG  25280.29826104 -.00000002  00000+0 -40765-4 0  9999
2 48072  87.9045  10.4779 0001960  97.7413 262.3939 13.13470691220633
ONEWEB-0175             
1 48073U 21025AH  25280.25255407  .00000288  00000+0  75266-3 0  9995
2 48073  87.9055  10.4522 0001759 112.1559 247.9757 13.13468735220284
ONEWEB-0177             
1 48074U 21025AJ  25280.26440807  .00000045  00000+0  87623-4 0  9999
2 48074  87.9060  10.4678 0001988 100.2973 259.8381 13.13469016220474
ONEWEB-0178             
1 48075U 21025AK  25280.28315915 -.00000202  00000+0 -58889-3 0  9991
2 48075  87.9055  10.5098 0001979 108.4436 251.6908 13.13470077220520
ONEWEB-0108             
1 48076U 21025AL  25280.24240047  .00000291  00000+0  76241-3 0  9999
2 48076  87.9055  10.4634 0001712  93.7397 266.3928 13.13469376220449
ONEWEB-0169             
1 48077U 21025AM  25280.27455657 -.00000122  00000+0 -37014-3 0  9998
2 48077  87.9053  10.4800 0001702  94.5040 265.6284 13.13470241219107
ONEWEB-0176             
1 48210U 21031A   25280.23959520  .00000251  00000+0  64265-3 0  9997
2 48210  87.9057 340.0814 0001914 103.1769 256.9574 13.14503127215086
ONEWEB-0184             
1 48211U 21031B   25280.21263215 -.00000031  00000+0 -11769-3 0  9994
2 48211  87.9065 340.0605 0002061 124.4110 235.7215 13.14503872215055
ONEWEB-0179             
1 48212U 21031C   25280.18328449  .00000029  00000+0  44037-4 0  9992
2 48212  87.9060 340.0802 0001935  97.3143 262.8207 13.14501214215097
ONEWEB-0180             
1 48213U 21031D   25280.21580099  .00000073  00000+0  16185-3 0  9999
2 48213  87.9066 340.0658 0002176 102.3565 257.7808 13.14502421214984
